{
"type": "FeatureCollection",
"name": "selected_ev_charging_sites",
"crs": { "type": "name", "properties": { "name": "urn:ogc:def:crs:OGC:1.3:CRS84" } },
"features": [
{ "type": "Feature", "properties": { "id": "710", "address": "100 Grangeway Avenue", "lat": 43.77458, "lng": -79.251359, "carpark_type": "surface", "carpark_type_str": "Surface", "is_ttc": false, "is_under_construction": false, "capacity": 214, "max_height": 0.0, "bike_racks": "available", "rate_half_hour": 1.0, "monthly_permit_status": "not_available", "candidate_id": "green_p_710", "distance_to_nearest_charger_m": 10033.701714351735, "capacity_missing": false, "capacity_filled": 214, "existing_chargers_1000m": 0, "existing_chargers_2000m": 0, "baseline_coverage_score": 0.88416783343728189, "baseline_capacity_score": 0.5945763623980771, "baseline_score": 0.7683312450216, "population_500m": 7155.2855750750459, "households_500m": 3485.2593925727829, "apartment_population_500m": 6653.7274114134643, "median_income_500m": 61730.527191671674, "apartment_share_500m": 0.92990382306909936, "population_1000m": 17841.678242668895, "households_1000m": 8015.4414920204026, "apartment_population_1000m": 14223.241326830777, "median_income_1000m": 66829.477832244418, "apartment_share_1000m": 0.79719189716220085, "population_2000m": 48523.49456533639, "households_2000m": 18252.950669405731, "apartment_population_2000m": 29237.606827314612, "median_income_2000m": 71959.350698297581, "apartment_share_2000m": 0.60254536671810544, "distance_to_traffic_count_m": 70.913546861657835, "traffic_volume_weighted_1000m": 17514.453391305746, "traffic_counters_1000m": 45, "traffic_data_quality": "high", "distance_to_arterial_m": null, "road_length_500m": null, "intersections_500m": null, "distance_to_transit_stop_m": 23.839691066500251, "transit_stop_count_500m": 26, "distance_to_destination_m": 429.37217262990202, "destination_count_1000m": 8, "capacity_log": 5.3706380281276624, "capacity_score": 0.5945763623980771, "facility_type_score": 1.0, "ttc_facility_score": 0.0, "parking_feasibility_score": 0.63647463555875006, "underserved_population_raw": 17841.678242668895, "underserved_population_score": 0.91960953794147027, "apartment_score": 0.79252589891964809, "low_existing_supply_score": 1.0, "equity_score": 0.8687760823327414, "constraint_status": "eligible", "constraint_notes": "", "essential_data_missing": false, "population_score": 0.75440884889825588, "traffic_score": 0.93104209874830768, "coverage_distance_score": 0.88416783343728189, "arterial_access_score": 0.5, "transit_access_score": 0.97571500308911918, "intersection_access_score": 0.5, "demand_score": 0.82385389635005246, "coverage_score": 0.91891748340609736, "accessibility_score": 0.64271450092673577, "feasibility_score": 0.63647463555875006, "overall_score": 0.78777724350897393, "static_rank": 1, "non_coverage_score": 0.74406383020993272, "_distance": 10033.701714351735, "_coverage_score": 0.88416783343728189, "_marginal_population": 17892.0, "_marginal_score": 0.55086206896551726, "_selection_score": 0.73078939070566618, "selection_round": 1, "selection_score": 0.73078939070566618, "marginal_population": 17892.0, "_selected_distance": null }, "geometry": { "type": "Point", "coordinates": [ -79.251359, 43.77458 ] } },
{ "type": "Feature", "properties": { "id": "821", "address": "Kennedy South Lot -155 Transway Cres", "lat": 43.731844, "lng": -79.263471, "carpark_type": "surface", "carpark_type_str": "Surface", "is_ttc": true, "is_under_construction": false, "capacity": 673, "max_height": null, "bike_racks": "not available", "rate_half_hour": 0.0, "monthly_permit_status": "not_available", "candidate_id": "green_p_821", "distance_to_nearest_charger_m": 5971.3416725653806, "capacity_missing": false, "capacity_filled": 673, "existing_chargers_1000m": 0, "existing_chargers_2000m": 0, "baseline_coverage_score": 0.52234674294271044, "baseline_capacity_score": 0.80099316160296574, "baseline_score": 0.63380531040681265, "population_500m": 5132.2878057787275, "households_500m": 1912.8960620419657, "apartment_population_500m": 3440.607634730778, "median_income_500m": 67435.427634147185, "apartment_share_500m": 0.67038478061514928, "population_1000m": 22184.98575394553, "households_1000m": 8122.2198225131942, "apartment_population_1000m": 14789.28830645645, "median_income_1000m": 68558.364647138733, "apartment_share_1000m": 0.66663501480167608, "population_2000m": 60281.224389699557, "households_2000m": 21700.484929966584, "apartment_population_2000m": 34499.501247103006, "median_income_2000m": 73432.513425315439, "apartment_share_2000m": 0.57230923220925889, "distance_to_traffic_count_m": 138.12232902525841, "traffic_volume_weighted_1000m": 14222.914665781482, "traffic_counters_1000m": 29, "traffic_data_quality": "high", "distance_to_arterial_m": null, "road_length_500m": null, "intersections_500m": null, "distance_to_transit_stop_m": 17.042081466521946, "transit_stop_count_500m": 26, "distance_to_destination_m": 167.24307660236161, "destination_count_1000m": 9, "capacity_log": 6.513230110912307, "capacity_score": 0.80099316160296574, "facility_type_score": 1.0, "ttc_facility_score": 1.0, "parking_feasibility_score": 0.87064555504192775, "underserved_population_raw": 22184.98575394553, "underserved_population_score": 0.94007597655191266, "apartment_score": 0.64475807784605155, "low_existing_supply_score": 1.0, "equity_score": 0.82194881706956824, "constraint_status": "eligible", "constraint_notes": "", "essential_data_missing": false, "population_score": 0.78963082645733895, "traffic_score": 0.87472183620367616, "coverage_distance_score": 0.52234674294271044, "arterial_access_score": 0.5, "transit_access_score": 0.98478884713224146, "intersection_access_score": 0.5, "demand_score": 0.79043813014629949, "coverage_score": 0.66564272005989733, "accessibility_score": 0.64543665413967244, "feasibility_score": 0.87064555504192775, "overall_score": 0.74542116485004462, "static_rank": 3, "non_coverage_score": 0.77201397978009367, "_distance": 4846.6853315267781, "_coverage_score": 0.81392652796740717, "_marginal_population": 25262.0, "_marginal_score": 0.7777709359605911, "_selection_score": 0.78393135587204643, "selection_round": 2, "selection_score": 0.78393135587204643, "marginal_population": 25262.0, "_selected_distance": 4846.6853315267781 }, "geometry": { "type": "Point", "coordinates": [ -79.263471, 43.731844 ] } },
{ "type": "Feature", "properties": { "id": "813", "address": "Finch West Lot - 18 Hendon Ave", "lat": 43.782032, "lng": -79.416368, "carpark_type": "surface", "carpark_type_str": "Surface", "is_ttc": true, "is_under_construction": false, "capacity": 1552, "max_height": 0.0, "bike_racks": "not available", "rate_half_hour": 0.0, "monthly_permit_status": "not_available", "candidate_id": "green_p_813", "distance_to_nearest_charger_m": 2154.1609198217261, "capacity_missing": false, "capacity_filled": 1552, "existing_chargers_1000m": 0, "existing_chargers_2000m": 0, "baseline_coverage_score": 0.18236296790408371, "baseline_capacity_score": 0.9517897016177973, "baseline_score": 0.49013366138956915, "population_500m": 12809.287774460325, "households_500m": 6178.6484728005062, "apartment_population_500m": 11919.843931604493, "median_income_500m": 64516.791752394485, "apartment_share_500m": 0.93056258407830916, "population_1000m": 31065.978684405742, "households_1000m": 14058.317137537288, "apartment_population_1000m": 25019.186875335181, "median_income_1000m": 67612.73319420543, "apartment_share_1000m": 0.80535646822850993, "population_2000m": 76984.422387922343, "households_2000m": 32732.230670905239, "apartment_population_2000m": 48914.404981984961, "median_income_2000m": 73018.165813117914, "apartment_share_2000m": 0.63538055446472852, "distance_to_traffic_count_m": 52.800137479736428, "traffic_volume_weighted_1000m": 18802.102276191232, "traffic_counters_1000m": 45, "traffic_data_quality": "high", "distance_to_arterial_m": null, "road_length_500m": null, "intersections_500m": null, "distance_to_transit_stop_m": 35.34064491627727, "transit_stop_count_500m": 28, "distance_to_destination_m": 254.4591467720783, "destination_count_1000m": 17, "capacity_log": 7.3479438231486869, "capacity_score": 0.9517897016177973, "facility_type_score": 1.0, "ttc_facility_score": 1.0, "parking_feasibility_score": 0.96866330605156825, "underserved_population_raw": 31065.978684405742, "underserved_population_score": 0.97170406940080345, "apartment_score": 0.80176678193290396, "low_existing_supply_score": 1.0, "equity_score": 0.90372915441364365, "constraint_status": "eligible", "constraint_notes": "", "essential_data_missing": false, "population_score": 0.84406159469035436, "traffic_score": 0.95023544581307584, "coverage_distance_score": 0.18236296790408371, "arterial_access_score": 0.5, "transit_access_score": 0.9603628620099437, "intersection_access_score": 0.5, "demand_score": 0.87276348003181681, "coverage_score": 0.42765407753285856, "accessibility_score": 0.63810885860298305, "feasibility_score": 0.96866330605156825, "overall_score": 0.73203674646245598, "static_rank": 5, "non_coverage_score": 0.83349763610565486, "_distance": 2154.1609198217261, "_coverage_score": 0.50807543844646208, "_marginal_population": 29868.0, "_marginal_score": 0.91958128078817736, "_selection_score": 0.77366299786148729, "selection_round": 3, "selection_score": 0.77366299786148729, "marginal_population": 29868.0, "_selected_distance": 13307.32188567455 }, "geometry": { "type": "Point", "coordinates": [ -79.416368, 43.782032 ] } },
{ "type": "Feature", "properties": { "id": "816", "address": "Don Mills Lot - 1800 Sheppard Ave East", "lat": 43.775815, "lng": -79.346707, "carpark_type": "surface", "carpark_type_str": "Surface", "is_ttc": true, "is_under_construction": false, "capacity": 366, "max_height": null, "bike_racks": "not available", "rate_half_hour": 0.0, "monthly_permit_status": "not_available", "candidate_id": "green_p_816", "distance_to_nearest_charger_m": 2471.9442730130841, "capacity_missing": false, "capacity_filled": 366, "existing_chargers_1000m": 0, "existing_chargers_2000m": 0, "baseline_coverage_score": 0.21066688932168356, "baseline_capacity_score": 0.69117774886919914, "baseline_score": 0.40287123314068984, "population_500m": 10203.000283107262, "households_500m": 4207.5258705477181, "apartment_population_500m": 9220.5839499856847, "median_income_500m": 69491.478795635005, "apartment_share_500m": 0.90371299560305529, "population_1000m": 28568.600715180448, "households_1000m": 11302.340461255109, "apartment_population_1000m": 22809.216378656893, "median_income_1000m": 73356.416851974616, "apartment_share_1000m": 0.79840159502585639, "population_2000m": 71270.93228826519, "households_2000m": 28550.305029973413, "apartment_population_2000m": 47306.182009839242, "median_income_2000m": 75459.725166370205, "apartment_share_2000m": 0.6637514129673906, "distance_to_traffic_count_m": 70.141906014414118, "traffic_volume_weighted_1000m": 13260.460314109208, "traffic_counters_1000m": 30, "traffic_data_quality": "high", "distance_to_arterial_m": null, "road_length_500m": null, "intersections_500m": null, "distance_to_transit_stop_m": 14.597339152613594, "transit_stop_count_500m": 25, "distance_to_destination_m": 363.82173355785841, "destination_count_1000m": 10, "capacity_log": 5.9053618480545707, "capacity_score": 0.69117774886919914, "facility_type_score": 1.0, "ttc_facility_score": 1.0, "parking_feasibility_score": 0.79926553676497936, "underserved_population_raw": 28568.600715180448, "underserved_population_score": 0.96383170329282886, "apartment_score": 0.79389506777722041, "low_existing_supply_score": 1.0, "equity_score": 0.89585704908658548, "constraint_status": "eligible", "constraint_notes": "", "essential_data_missing": false, "population_score": 0.8305135462159855, "traffic_score": 0.85576543738460997, "coverage_distance_score": 0.21066688932168356, "arterial_access_score": 0.5, "transit_access_score": 0.98805223114330576, "intersection_access_score": 0.5, "demand_score": 0.832028012437251, "coverage_score": 0.44746682252517844, "accessibility_score": 0.64641566934299177, "feasibility_score": 0.79926553676497936, "overall_score": 0.70023377865447378, "static_rank": 11, "non_coverage_score": 0.78448943069757204, "_distance": 2471.9442730130841, "_coverage_score": 0.58302708900237699, "_marginal_population": 28198.0, "_marginal_score": 1.0, "_selection_score": 0.78800148759938027, "selection_round": 4, "selection_score": 0.78800148759938027, "marginal_population": 28198.0, "_selected_distance": 5649.2487112150939 }, "geometry": { "type": "Point", "coordinates": [ -79.346707, 43.775815 ] } },
{ "type": "Feature", "properties": { "id": "802", "address": "Islington Main Lot - 3330 Bloor Street West", "lat": 43.644181, "lng": -79.526188, "carpark_type": "surface", "carpark_type_str": "Surface", "is_ttc": true, "is_under_construction": false, "capacity": 534, "max_height": null, "bike_racks": "not available", "rate_half_hour": 0.0, "monthly_permit_status": "not_available", "candidate_id": "green_p_802", "distance_to_nearest_charger_m": 1835.6864604538348, "capacity_missing": false, "capacity_filled": 534, "existing_chargers_1000m": 0, "existing_chargers_2000m": 1, "baseline_coverage_score": 0.15399749192512821, "baseline_capacity_score": 0.75926810587034688, "baseline_score": 0.3961057375032157, "population_500m": 12693.589116267673, "households_500m": 6243.9107757375068, "apartment_population_500m": 11568.436437133716, "median_income_500m": 68249.053386674073, "apartment_share_500m": 0.911360556196671, "population_1000m": 21003.352006911158, "households_1000m": 9889.8816243958754, "apartment_population_1000m": 15765.173910015972, "median_income_1000m": 81426.928138285453, "apartment_share_1000m": 0.7506027563994756, "population_2000m": 44268.176307842281, "households_2000m": 18495.530658137141, "apartment_population_2000m": 19522.754417928838, "median_income_2000m": 108876.73557560002, "apartment_share_2000m": 0.44101103876895659, "distance_to_traffic_count_m": 44.696831371653992, "traffic_volume_weighted_1000m": 16918.90822828489, "traffic_counters_1000m": 35, "traffic_data_quality": "high", "distance_to_arterial_m": null, "road_length_500m": null, "intersections_500m": null, "distance_to_transit_stop_m": 77.811347065087119, "transit_stop_count_500m": 29, "distance_to_destination_m": 53.756993420806843, "destination_count_1000m": 14, "capacity_log": 6.2822667468960063, "capacity_score": 0.75926810587034688, "facility_type_score": 1.0, "ttc_facility_score": 1.0, "parking_feasibility_score": 0.84352426881572551, "underserved_population_raw": 21003.352006911158, "underserved_population_score": 0.93493454155544597, "apartment_score": 0.7397950455802722, "low_existing_supply_score": 0.95, "equity_score": 0.85687874316537638, "constraint_status": "eligible", "constraint_notes": "", "essential_data_missing": false, "population_score": 0.7807826085766455, "traffic_score": 0.92168258862047536, "coverage_distance_score": 0.15399749192512821, "arterial_access_score": 0.5, "transit_access_score": 0.90367050243380209, "intersection_access_score": 0.5, "demand_score": 0.82190008899271116, "coverage_score": 0.3927982443475897, "accessibility_score": 0.62110115073014061, "feasibility_score": 0.84352426881572551, "overall_score": 0.68120633256963536, "static_rank": 13, "non_coverage_score": 0.77734236197698381, "_distance": 1835.6864604538348, "_coverage_score": 0.43296078517778602, "_marginal_population": 21146.0, "_marginal_score": 0.97527903329951116, "_selection_score": 0.74073113560781612, "selection_round": 5, "selection_score": 0.74073113560781612, "marginal_population": 21146.0, "_selected_distance": 17685.695586042591 }, "geometry": { "type": "Point", "coordinates": [ -79.526188, 43.644181 ] } },
{ "type": "Feature", "properties": { "id": "811", "address": "Wilson Main Lot - 50 Wilson Heights Blvd", "lat": 43.736244, "lng": -79.449177, "carpark_type": "surface", "carpark_type_str": "Surface", "is_ttc": true, "is_under_construction": false, "capacity": 885, "max_height": null, "bike_racks": "not available", "rate_half_hour": 0.0, "monthly_permit_status": "not_available", "candidate_id": "green_p_811", "distance_to_nearest_charger_m": 4069.0438469022133, "capacity_missing": false, "capacity_filled": 885, "existing_chargers_1000m": 0, "existing_chargers_2000m": 0, "baseline_coverage_score": 0.35291531228492101, "baseline_capacity_score": 0.85040036380977735, "baseline_score": 0.55190933289486355, "population_500m": 2312.265195558135, "households_500m": 980.75383684714552, "apartment_population_500m": 1566.5880093650442, "median_income_500m": 79958.168690730992, "apartment_share_500m": 0.67751225610905796, "population_1000m": 10058.742127149952, "households_1000m": 4068.0940914392204, "apartment_population_1000m": 6610.2251648467263, "median_income_1000m": 84750.538737389448, "apartment_share_1000m": 0.65716220589896668, "population_2000m": 43991.160875173788, "households_2000m": 16639.273099709229, "apartment_population_2000m": 24226.421890836576, "median_income_2000m": 89195.22825805399, "apartment_share_2000m": 0.55071112943756495, "distance_to_traffic_count_m": 17.786620615446456, "traffic_volume_weighted_1000m": 16156.807669199916, "traffic_counters_1000m": 21, "traffic_data_quality": "high", "distance_to_arterial_m": null, "road_length_500m": null, "intersections_500m": null, "distance_to_transit_stop_m": 155.99470585856457, "transit_stop_count_500m": 28, "distance_to_destination_m": 375.65300123020188, "destination_count_1000m": 8, "capacity_log": 6.7867169506050811, "capacity_score": 0.85040036380977735, "facility_type_score": 1.0, "ttc_facility_score": 1.0, "parking_feasibility_score": 0.90276023647635528, "underserved_population_raw": 10058.742127149952, "underserved_population_score": 0.86577716923805781, "apartment_score": 0.63403649576097587, "low_existing_supply_score": 1.0, "equity_score": 0.77308089984722506, "constraint_status": "eligible", "constraint_notes": "", "essential_data_missing": false, "population_score": 0.66176535002119874, "traffic_score": 0.90921296370584093, "coverage_distance_score": 0.35291531228492101, "arterial_access_score": 0.5, "transit_access_score": 0.79930681487196309, "intersection_access_score": 0.5, "demand_score": 0.74282624395877894, "coverage_score": 0.5470407185994447, "accessibility_score": 0.58979204446158895, "feasibility_score": 0.90276023647635528, "overall_score": 0.6902885871859884, "static_rank": 12, "non_coverage_score": 0.73803787671483634, "_distance": 4069.0438469022133, "_coverage_score": 0.95971532003459292, "_marginal_population": 8997.0, "_marginal_score": 0.41495249515727334, "_selection_score": 0.71268589215538469, "selection_round": 6, "selection_score": 0.71268589215538469, "marginal_population": 8997.0, "_selected_distance": 5731.3929704273214 }, "geometry": { "type": "Point", "coordinates": [ -79.449177, 43.736244 ] } },
{ "type": "Feature", "properties": { "id": "668", "address": "2700 Eglinton Avenue West", "lat": 43.690203, "lng": -79.477919, "carpark_type": "surface", "carpark_type_str": "Surface", "is_ttc": false, "is_under_construction": false, "capacity": 109, "max_height": 0.0, "bike_racks": "available", "rate_half_hour": 2.0, "monthly_permit_status": "not_available", "candidate_id": "green_p_668", "distance_to_nearest_charger_m": 3022.437315110541, "capacity_missing": false, "capacity_filled": 109, "existing_chargers_1000m": 0, "existing_chargers_2000m": 0, "baseline_coverage_score": 0.25969749979258361, "baseline_capacity_score": 0.47350795862904371, "baseline_score": 0.34522168332716763, "population_500m": 3099.0875025081918, "households_500m": 1264.5901478381015, "apartment_population_500m": 1951.541518247566, "median_income_500m": 60748.055983421546, "apartment_share_500m": 0.6297148811281128, "population_1000m": 15237.912356668157, "households_1000m": 6027.0015419942938, "apartment_population_1000m": 8825.6094912501558, "median_income_1000m": 64154.030654638067, "apartment_share_1000m": 0.57918757403720345, "population_2000m": 63387.032442602882, "households_2000m": 23963.126494135267, "apartment_population_2000m": 34003.53763597869, "median_income_2000m": 70402.566106664817, "apartment_share_2000m": 0.53644312291743546, "distance_to_traffic_count_m": 85.053405223041665, "traffic_volume_weighted_1000m": 13433.560516141069, "traffic_counters_1000m": 54, "traffic_data_quality": "high", "distance_to_arterial_m": null, "road_length_500m": null, "intersections_500m": null, "distance_to_transit_stop_m": 85.024762551404677, "transit_stop_count_500m": 19, "distance_to_destination_m": 49.124934199764247, "destination_count_1000m": 16, "capacity_log": 4.7004803657924166, "capacity_score": 0.47350795862904371, "facility_type_score": 1.0, "ttc_facility_score": 0.0, "parking_feasibility_score": 0.5577801731088784, "underserved_population_raw": 15237.912356668157, "underserved_population_score": 0.90479137262369458, "apartment_score": 0.5457826922011535, "low_existing_supply_score": 1.0, "equity_score": 0.7611879004546781, "constraint_status": "eligible", "constraint_notes": "", "essential_data_missing": false, "population_score": 0.72890733902524951, "traffic_score": 0.85927422344200199, "coverage_distance_score": 0.25969749979258361, "arterial_access_score": 0.5, "transit_access_score": 0.89404161654701952, "intersection_access_score": 0.5, "demand_score": 0.73791081920629353, "coverage_score": 0.4817882498548085, "accessibility_score": 0.61821248496410586, "feasibility_score": 0.5577801731088784, "overall_score": 0.62524862123021097, "static_rank": 30, "non_coverage_score": 0.67306874502201175, "_distance": 3022.437315110541, "_coverage_score": 0.840173051620691, "_marginal_population": 15510.0, "_marginal_score": 0.71533991329213176, "_selection_score": 0.72541261373921162, "selection_round": 7, "selection_score": 0.72541261373921162, "marginal_population": 15510.0, "_selected_distance": 5614.2789557083906 }, "geometry": { "type": "Point", "coordinates": [ -79.477919, 43.690203 ] } },
{ "type": "Feature", "properties": { "id": "823", "address": "Warden South Lot - 701 Warden Ave", "lat": 43.710032, "lng": -79.27979, "carpark_type": "surface", "carpark_type_str": "Surface", "is_ttc": true, "is_under_construction": false, "capacity": 151, "max_height": null, "bike_racks": "not available", "rate_half_hour": 0.0, "monthly_permit_status": "not_available", "candidate_id": "green_p_823", "distance_to_nearest_charger_m": 3214.7768491636652, "capacity_missing": false, "capacity_filled": 151, "existing_chargers_1000m": 0, "existing_chargers_2000m": 0, "baseline_coverage_score": 0.27682855150648267, "baseline_capacity_score": 0.53193233061129253, "baseline_score": 0.3788700631484066, "population_500m": 3693.074594149839, "households_500m": 1240.6038823427864, "apartment_population_500m": 1574.4074174724938, "median_income_500m": 82344.649032026253, "apartment_share_500m": 0.42631346249179375, "population_1000m": 15337.313298145073, "households_1000m": 5320.4458367868592, "apartment_population_1000m": 7104.6948145913384, "median_income_1000m": 78925.53905791085, "apartment_share_1000m": 0.46322942463792505, "population_2000m": 64042.529808439984, "households_2000m": 23138.524768685398, "apartment_population_2000m": 34627.325964194453, "median_income_2000m": 73813.782869117887, "apartment_share_2000m": 0.54069266263793059, "distance_to_traffic_count_m": 244.12422418668888, "traffic_volume_weighted_1000m": 14157.811299445571, "traffic_counters_1000m": 29, "traffic_data_quality": "high", "distance_to_arterial_m": null, "road_length_500m": null, "intersections_500m": null, "distance_to_transit_stop_m": 26.620598472660507, "transit_stop_count_500m": 18, "distance_to_destination_m": 419.6432795213625, "destination_count_1000m": 14, "capacity_log": 5.0238805208462765, "capacity_score": 0.53193233061129253, "facility_type_score": 1.0, "ttc_facility_score": 1.0, "parking_feasibility_score": 0.69575601489734018, "underserved_population_raw": 15337.313298145073, "underserved_population_score": 0.90540213689207061, "apartment_score": 0.41453811311308192, "low_existing_supply_score": 1.0, "equity_score": 0.7090565273804752, "constraint_status": "eligible", "constraint_notes": "", "essential_data_missing": false, "population_score": 0.72995844155286038, "traffic_score": 0.87348061306567837, "coverage_distance_score": 0.27682855150648267, "arterial_access_score": 0.5, "transit_access_score": 0.97200288639122245, "intersection_access_score": 0.5, "demand_score": 0.71710713589439101, "coverage_score": 0.49377998605453788, "accessibility_score": 0.64160086591736676, "feasibility_score": 0.69575601489734018, "overall_score": 0.64216636543807371, "static_rank": 25, "non_coverage_score": 0.69162849189925213, "_distance": 2756.7995867872942, "_coverage_score": 0.76633143389213021, "_marginal_population": 16273.0, "_marginal_score": 0.75053039387510379, "_selection_score": 0.72502970289143454, "selection_round": 8, "selection_score": 0.72502970289143454, "marginal_population": 16273.0, "_selected_distance": 2756.7995867872942 }, "geometry": { "type": "Point", "coordinates": [ -79.27979, 43.710032 ] } },
{ "type": "Feature", "properties": { "id": "663", "address": "1 Shortt Street", "lat": 43.695951, "lng": -79.451795, "carpark_type": "surface", "carpark_type_str": "Surface", "is_ttc": false, "is_under_construction": false, "capacity": 130, "max_height": 0.0, "bike_racks": "available", "rate_half_hour": 1.0, "monthly_permit_status": "waiting_list", "candidate_id": "green_p_663", "distance_to_nearest_charger_m": 1997.3831300485854, "capacity_missing": false, "capacity_filled": 130, "existing_chargers_1000m": 0, "existing_chargers_2000m": 1, "baseline_coverage_score": 0.16839928416419975, "baseline_capacity_score": 0.50507172986333582, "baseline_score": 0.30306826244385421, "population_500m": 6556.8215952154715, "households_500m": 2772.8217956407902, "apartment_population_500m": 3810.8878397400263, "median_income_500m": 63380.150501223136, "apartment_share_500m": 0.58120962792717135, "population_1000m": 21483.51572623723, "households_1000m": 8697.9418191300629, "apartment_population_1000m": 11268.00153632637, "median_income_1000m": 70899.395799559294, "apartment_share_1000m": 0.52449523066492643, "population_2000m": 79377.515585413872, "households_2000m": 30916.68608956967, "apartment_population_2000m": 39394.048091271667, "median_income_2000m": 79707.307972373324, "apartment_share_2000m": 0.49628723953802573, "distance_to_traffic_count_m": 94.61891244891919, "traffic_volume_weighted_1000m": 12333.34351347552, "traffic_counters_1000m": 53, "traffic_data_quality": "high", "distance_to_arterial_m": null, "road_length_500m": null, "intersections_500m": null, "distance_to_transit_stop_m": 109.20560172950161, "transit_stop_count_500m": 15, "distance_to_destination_m": 365.30863865092078, "destination_count_1000m": 9, "capacity_log": 4.8751973232011512, "capacity_score": 0.50507172986333582, "facility_type_score": 1.0, "ttc_facility_score": 0.0, "parking_feasibility_score": 0.57829662441116825, "underserved_population_raw": 21483.51572623723, "underserved_population_score": 0.93705784637439793, "apartment_score": 0.48388041433262236, "low_existing_supply_score": 0.95, "equity_score": 0.75578687355768759, "constraint_status": "eligible", "constraint_notes": "", "essential_data_missing": false, "population_score": 0.78443673698206628, "traffic_score": 0.83615643603449596, "coverage_distance_score": 0.16839928416419975, "arterial_access_score": 0.5, "transit_access_score": 0.86176362818849794, "intersection_access_score": 0.5, "demand_score": 0.74242736712052793, "coverage_score": 0.40287949891493979, "accessibility_score": 0.60852908845654941, "feasibility_score": 0.57829662441116825, "overall_score": 0.60747708357364716, "static_rank": 36, "non_coverage_score": 0.67567627845988287, "_distance": 1997.3831300485854, "_coverage_score": 0.55575331798380589, "_marginal_population": 20889.0, "_marginal_score": 0.96342588322110512, "_selection_score": 0.71763293953116913, "selection_round": 9, "selection_score": 0.71763293953116913, "marginal_population": 20889.0, "_selected_distance": 2200.3117100122613 }, "geometry": { "type": "Point", "coordinates": [ -79.451795, 43.695951 ] } },
{ "type": "Feature", "properties": { "id": "824", "address": "Victoria Main Lot - 777 Victoria Park Avenue", "lat": 43.693563, "lng": -79.289052, "carpark_type": "surface", "carpark_type_str": "Surface", "is_ttc": true, "is_under_construction": false, "capacity": 173, "max_height": null, "bike_racks": "not available", "rate_half_hour": 0.0, "monthly_permit_status": "not_available", "candidate_id": "green_p_824", "distance_to_nearest_charger_m": 1260.2575526170999, "capacity_missing": false, "capacity_filled": 173, "existing_chargers_1000m": 0, "existing_chargers_2000m": 4, "baseline_coverage_score": 0.10274592564494339, "baseline_capacity_score": 0.55635254628091568, "baseline_score": 0.28418857389933233, "population_500m": 13529.215514724281, "households_500m": 5129.5571966001371, "apartment_population_500m": 12085.308873684669, "median_income_500m": 61192.322673228344, "apartment_share_500m": 0.8932749175687118, "population_1000m": 29319.512661494373, "households_1000m": 11397.859286433839, "apartment_population_1000m": 21452.772503195618, "median_income_1000m": 67869.028820415682, "apartment_share_1000m": 0.73168925932966722, "population_2000m": 87500.128119052039, "households_2000m": 35109.765708042301, "apartment_population_2000m": 49066.162419861088, "median_income_2000m": 77743.737067904163, "apartment_share_2000m": 0.56075532087338231, "distance_to_traffic_count_m": 28.628968565818234, "traffic_volume_weighted_1000m": 11140.665779118193, "traffic_counters_1000m": 61, "traffic_data_quality": "high", "distance_to_arterial_m": null, "road_length_500m": null, "intersections_500m": null, "distance_to_transit_stop_m": 66.601810776722814, "transit_stop_count_500m": 31, "distance_to_destination_m": 310.47606765957306, "destination_count_1000m": 17, "capacity_log": 5.1590552992145291, "capacity_score": 0.55635254628091568, "facility_type_score": 1.0, "ttc_facility_score": 1.0, "parking_feasibility_score": 0.71162915508259517, "underserved_population_raw": 29319.512661494373, "underserved_population_score": 0.96626888912520548, "apartment_score": 0.71838823653002426, "low_existing_supply_score": 0.8, "equity_score": 0.86711662808713297, "constraint_status": "eligible", "constraint_notes": "", "essential_data_missing": false, "population_score": 0.83470785213941512, "traffic_score": 0.80864123668766785, "coverage_distance_score": 0.10274592564494339, "arterial_access_score": 0.5, "transit_access_score": 0.91863364242887668, "intersection_access_score": 0.5, "demand_score": 0.80232061360942541, "coverage_score": 0.31192214795146034, "accessibility_score": 0.62559009272866295, "feasibility_score": 0.71162915508259517, "overall_score": 0.63725077568752786, "static_rank": 26, "non_coverage_score": 0.74569365159955037, "_distance": 1260.2575526170999, "_coverage_score": 0.35065496741432245, "_marginal_population": 21682.0, "_marginal_score": 1.0, "_selection_score": 0.71051056765335585, "selection_round": 10, "selection_score": 0.71051056765335585, "marginal_population": 21682.0, "_selected_distance": 1975.9312736443567 }, "geometry": { "type": "Point", "coordinates": [ -79.289052, 43.693563 ] } },
{ "type": "Feature", "properties": { "id": "152", "address": "25 Glenforest Road", "lat": 43.730266, "lng": -79.402734, "carpark_type": "surface", "carpark_type_str": "Surface", "is_ttc": false, "is_under_construction": false, "capacity": 26, "max_height": 0.0, "bike_racks": "available", "rate_half_hour": 1.5, "monthly_permit_status": "not_available", "candidate_id": "green_p_152", "distance_to_nearest_charger_m": 2696.1851661222199, "capacity_missing": false, "capacity_filled": 26, "existing_chargers_1000m": 0, "existing_chargers_2000m": 0, "baseline_coverage_score": 0.23063929049825344, "baseline_capacity_score": 0.21974984178336796, "baseline_score": 0.22628351101229927, "population_500m": 4972.7047004449196, "households_500m": 1982.1178535728357, "apartment_population_500m": 1553.423097542207, "median_income_500m": 128239.51230997326, "apartment_share_500m": 0.31238997509810273, "population_1000m": 17341.112350386597, "households_1000m": 6707.2378725469043, "apartment_population_1000m": 4658.9565618891256, "median_income_1000m": 145547.54589418144, "apartment_share_1000m": 0.26866538130613404, "population_2000m": 47469.377592854318, "households_2000m": 18203.646129945111, "apartment_population_2000m": 13123.633063518486, "median_income_2000m": 150738.87508822011, "apartment_share_2000m": 0.2764652441007362, "distance_to_traffic_count_m": 105.2060326212339, "traffic_volume_weighted_1000m": 13409.116887122897, "traffic_counters_1000m": 52, "traffic_data_quality": "high", "distance_to_arterial_m": null, "road_length_500m": null, "intersections_500m": null, "distance_to_transit_stop_m": 76.960708670677803, "transit_stop_count_500m": 15, "distance_to_destination_m": 289.44127157906922, "destination_count_1000m": 10, "capacity_log": 3.2958368660043291, "capacity_score": 0.21974984178336796, "facility_type_score": 1.0, "ttc_facility_score": 0.0, "parking_feasibility_score": 0.39283739715918919, "underserved_population_raw": 17341.112350386597, "underserved_population_score": 0.91693643761584764, "apartment_score": 0.1943252509292609, "low_existing_supply_score": 1.0, "equity_score": 0.62789196294121297, "constraint_status": "eligible", "constraint_notes": "", "essential_data_missing": false, "population_score": 0.74980854293030808, "traffic_score": 0.85878149529239212, "coverage_distance_score": 0.23063929049825344, "arterial_access_score": 0.5, "transit_access_score": 0.9048059839607181, "intersection_access_score": 0.5, "demand_score": 0.67685241785682804, "coverage_score": 0.46144750334877738, "accessibility_score": 0.62144179518821541, "feasibility_score": 0.39283739715918919, "overall_score": 0.56442076609988556, "static_rank": 75, "non_coverage_score": 0.59874518701692159, "_distance": 2696.1851661222199, "_coverage_score": 0.75018849885584771, "_marginal_population": 17929.0, "_marginal_score": 0.96402839014947839, "_selection_score": 0.72792681575979234, "selection_round": 11, "selection_score": 0.72792681575979234, "marginal_population": 17929.0, "_selected_distance": 3799.3904158911982 }, "geometry": { "type": "Point", "coordinates": [ -79.402734, 43.730266 ] } },
{ "type": "Feature", "properties": { "id": "709", "address": "1940 Lawrence Avenue East", "lat": 43.744476, "lng": -79.299188, "carpark_type": "surface", "carpark_type_str": "Surface", "is_ttc": false, "is_under_construction": false, "capacity": 25, "max_height": 2.06, "bike_racks": "available", "rate_half_hour": 1.0, "monthly_permit_status": "waiting_list", "candidate_id": "green_p_709", "distance_to_nearest_charger_m": 6555.3041453920723, "capacity_missing": false, "capacity_filled": 25, "existing_chargers_1000m": 0, "existing_chargers_2000m": 0, "baseline_coverage_score": 0.5743583658793, "baseline_capacity_score": 0.21293180250186328, "baseline_score": 0.4297877405283253, "population_500m": 3109.8342130618757, "households_500m": 1058.8168657372216, "apartment_population_500m": 1086.468805878992, "median_income_500m": 76359.9437808691, "apartment_share_500m": 0.34936550678991929, "population_1000m": 12237.348313744078, "households_1000m": 4285.0184302941589, "apartment_population_1000m": 5637.7153145671291, "median_income_1000m": 76169.407298614795, "apartment_share_1000m": 0.46069746239348824, "population_2000m": 44683.592679791291, "households_2000m": 16174.224360530365, "apartment_population_2000m": 20408.630274546565, "median_income_2000m": 77218.602641271558, "apartment_share_2000m": 0.45673655699078608, "distance_to_traffic_count_m": 68.49981921830927, "traffic_volume_weighted_1000m": 22451.593451998964, "traffic_counters_1000m": 32, "traffic_data_quality": "high", "distance_to_arterial_m": null, "road_length_500m": null, "intersections_500m": null, "distance_to_transit_stop_m": 100.22482929750191, "transit_stop_count_500m": 14, "distance_to_destination_m": 628.83074283811243, "destination_count_1000m": 3, "capacity_log": 3.2580965380214821, "capacity_score": 0.21293180250186328, "facility_type_score": 1.0, "ttc_facility_score": 0.0, "parking_feasibility_score": 0.38840567162621115, "underserved_population_raw": 12237.348313744078, "underserved_population_score": 0.88419245275257008, "apartment_score": 0.41167236956026132, "low_existing_supply_score": 1.0, "equity_score": 0.69518441947564658, "constraint_status": "eligible", "constraint_notes": "", "essential_data_missing": false, "population_score": 0.69345736615738007, "traffic_score": 0.99822921288564315, "coverage_distance_score": 0.5743583658793, "arterial_access_score": 0.5, "transit_access_score": 0.87375168475988407, "intersection_access_score": 0.5, "demand_score": 0.74377051319284837, "coverage_score": 0.70205085611550999, "accessibility_score": 0.61212550542796518, "feasibility_score": 0.38840567162621115, "overall_score": 0.64884826176382127, "static_rank": 22, "non_coverage_score": 0.63111406364659184, "_distance": 3200.8237426611076, "_coverage_score": 0.89059949916668424, "_marginal_population": 12411.0, "_marginal_score": 0.70649513291967891, "_selection_score": 0.71483068984488662, "selection_round": 12, "selection_score": 0.71483068984488662, "marginal_population": 12411.0, "_selected_distance": 3200.8237426611076 }, "geometry": { "type": "Point", "coordinates": [ -79.299188, 43.744476 ] } },
{ "type": "Feature", "properties": { "id": "510", "address": "3239 Lake Shore Boulevard West", "lat": 43.596987584112135, "lng": -79.52170886375427, "carpark_type": "surface", "carpark_type_str": "Surface", "is_ttc": false, "is_under_construction": false, "capacity": 22, "max_height": 0.0, "bike_racks": "available", "rate_half_hour": 1.0, "monthly_permit_status": "waiting_list", "candidate_id": "green_p_510", "distance_to_nearest_charger_m": 3365.6064842356236, "capacity_missing": false, "capacity_filled": 22, "existing_chargers_1000m": 0, "existing_chargers_2000m": 0, "baseline_coverage_score": 0.29026245260812811, "baseline_capacity_score": 0.19078288401845384, "baseline_score": 0.25047062517225838, "population_500m": 3230.4014741481515, "households_500m": 1391.1815388975344, "apartment_population_500m": 1713.629898987338, "median_income_500m": 71300.982942064351, "apartment_share_500m": 0.53046963750510845, "population_1000m": 10216.278204212929, "households_1000m": 4480.3679718369867, "apartment_population_1000m": 5676.3594022091784, "median_income_1000m": 72540.788224221062, "apartment_share_1000m": 0.55561910988958718, "population_2000m": 28361.957045532112, "households_2000m": 12266.181385501826, "apartment_population_2000m": 14922.857866329585, "median_income_2000m": 75104.096262928855, "apartment_share_2000m": 0.52615755120045204, "distance_to_traffic_count_m": 16.702515117596608, "traffic_volume_weighted_1000m": 12115.824171409569, "traffic_counters_1000m": 13, "traffic_data_quality": "high", "distance_to_arterial_m": null, "road_length_500m": null, "intersections_500m": null, "distance_to_transit_stop_m": 27.820010075887595, "transit_stop_count_500m": 12, "distance_to_destination_m": 467.39533855874345, "destination_count_1000m": 18, "capacity_log": 3.1354942159291497, "capacity_score": 0.19078288401845384, "facility_type_score": 1.0, "ttc_facility_score": 0.0, "parking_feasibility_score": 0.374008874611995, "underserved_population_raw": 10216.278204212929, "underserved_population_score": 0.86723687156495777, "apartment_score": 0.51910726513690053, "low_existing_supply_score": 1.0, "equity_score": 0.72798502899373485, "constraint_status": "eligible", "constraint_notes": "", "essential_data_missing": false, "population_score": 0.66427744328664751, "traffic_score": 0.83134239825917222, "coverage_distance_score": 0.29026245260812811, "arterial_access_score": 0.5, "transit_access_score": 0.97040184213130665, "intersection_access_score": 0.5, "demand_score": 0.69371614189708175, "coverage_score": 0.50318371682568963, "accessibility_score": 0.64112055263939194, "feasibility_score": 0.374008874611995, "overall_score": 0.59103471639459815, "static_rank": 45, "non_coverage_score": 0.62031838291756758, "_distance": 3365.6064842356236, "_coverage_score": 0.93644876764141982, "_marginal_population": 10608.0, "_marginal_score": 0.60385950930722376, "_selection_score": 0.69523626069594469, "selection_round": 13, "selection_score": 0.69523626069594469, "marginal_population": 10608.0, "_selected_distance": 5254.6805812329312 }, "geometry": { "type": "Point", "coordinates": [ -79.52170886375427, 43.596987584112135 ] } },
{ "type": "Feature", "properties": { "id": "818", "address": "Lawrence East Lot - Near 2450 Lawrence Ave East", "lat": 43.750477, "lng": -79.270269, "carpark_type": "surface", "carpark_type_str": "Surface", "is_ttc": true, "is_under_construction": false, "capacity": 90, "max_height": 0.0, "bike_racks": "available", "rate_half_hour": 0.0, "monthly_permit_status": "not_available", "candidate_id": "green_p_818", "distance_to_nearest_charger_m": 7682.2261549596487, "capacity_missing": false, "capacity_filled": 90, "existing_chargers_1000m": 0, "existing_chargers_2000m": 0, "baseline_coverage_score": 0.67472961466323988, "baseline_capacity_score": 0.43925169917838164, "baseline_score": 0.58053844846929659, "population_500m": 3520.7396027575687, "households_500m": 1253.6625270196901, "apartment_population_500m": 2721.3258155436483, "median_income_500m": 70137.237997835153, "apartment_share_500m": 0.77294151871163919, "population_1000m": 13865.524975175771, "households_1000m": 4402.8103140027015, "apartment_population_1000m": 8500.7494258577844, "median_income_1000m": 75164.488981349336, "apartment_share_1000m": 0.61308529183548077, "population_2000m": 49680.00934446833, "households_2000m": 16589.704145003856, "apartment_population_2000m": 24047.239894086357, "median_income_2000m": 76887.144600405576, "apartment_share_2000m": 0.48404257993087357, "distance_to_traffic_count_m": 391.95425202927447, "traffic_volume_weighted_1000m": 21654.737035797152, "traffic_counters_1000m": 24, "traffic_data_quality": "medium", "distance_to_arterial_m": null, "road_length_500m": null, "intersections_500m": null, "distance_to_transit_stop_m": 298.00935329777263, "transit_stop_count_500m": 15, "distance_to_destination_m": 266.45123704336299, "destination_count_1000m": 10, "capacity_log": 4.5108595065168497, "capacity_score": 0.43925169917838164, "facility_type_score": 1.0, "ttc_facility_score": 1.0, "parking_feasibility_score": 0.63551360446594807, "underserved_population_raw": 13865.524975175771, "underserved_population_score": 0.89592584820125032, "apartment_score": 0.58414904874899976, "low_existing_supply_score": 1.0, "equity_score": 0.77121512842035012, "constraint_status": "eligible", "constraint_notes": "", "essential_data_missing": false, "population_score": 0.71365010213121005, "traffic_score": 0.98845219368054049, "coverage_distance_score": 0.67472961466323988, "arterial_access_score": 0.5, "transit_access_score": 0.60973741643129775, "intersection_access_score": 0.5, "demand_score": 0.78393062349703357, "coverage_score": 0.77231073026426789, "accessibility_score": 0.53292122492938931, "feasibility_score": 0.63551360446594807, "overall_score": 0.70728966811298222, "static_rank": 10, "non_coverage_score": 0.68561598072922025, "_distance": 2141.1162875680038, "_coverage_score": 0.59574573505892292, "_marginal_population": 12996.0, "_marginal_score": 0.73979620880059205, "_selection_score": 0.67669347632948895, "selection_round": 14, "selection_score": 0.67669347632948895, "marginal_population": 12996.0, "_selected_distance": 2141.1162875680038 }, "geometry": { "type": "Point", "coordinates": [ -79.270269, 43.750477 ] } },
{ "type": "Feature", "properties": { "id": "602", "address": "1503 Bayview Avenue", "lat": 43.703909, "lng": -79.374332, "carpark_type": "surface", "carpark_type_str": "Surface", "is_ttc": false, "is_under_construction": false, "capacity": 25, "max_height": null, "bike_racks": "available", "rate_half_hour": 1.25, "monthly_permit_status": "not_available", "candidate_id": "green_p_602", "distance_to_nearest_charger_m": 1793.0772765196693, "capacity_missing": false, "capacity_filled": 25, "existing_chargers_1000m": 0, "existing_chargers_2000m": 2, "baseline_coverage_score": 0.15020243160611121, "baseline_capacity_score": 0.21293180250186328, "baseline_score": 0.17529417996441204, "population_500m": 4330.536979227365, "households_500m": 1726.9480223368528, "apartment_population_500m": 1115.1820878627725, "median_income_500m": 126579.16489627073, "apartment_share_500m": 0.25751589080339371, "population_1000m": 16532.620780197052, "households_1000m": 6624.9240846854327, "apartment_population_1000m": 4818.7391336204109, "median_income_1000m": 123075.95445970641, "apartment_share_1000m": 0.29146855768882979, "population_2000m": 78320.191215274812, "households_2000m": 38210.637211052956, "apartment_population_2000m": 49659.045796631122, "median_income_2000m": 97775.905147074081, "apartment_share_2000m": 0.6340516414232924, "distance_to_traffic_count_m": 46.101460904271903, "traffic_volume_weighted_1000m": 9135.3288770933941, "traffic_counters_1000m": 82, "traffic_data_quality": "high", "distance_to_arterial_m": null, "road_length_500m": null, "intersections_500m": null, "distance_to_transit_stop_m": 28.409178900279873, "transit_stop_count_500m": 10, "distance_to_destination_m": 289.20798983669567, "destination_count_1000m": 11, "capacity_log": 3.2580965380214821, "capacity_score": 0.21293180250186328, "facility_type_score": 1.0, "ttc_facility_score": 0.0, "parking_feasibility_score": 0.38840567162621115, "underserved_population_raw": 16532.620780197052, "underserved_population_score": 0.91245157706033342, "apartment_score": 0.22013450454120739, "low_existing_supply_score": 0.9, "equity_score": 0.635524748052683, "constraint_status": "eligible", "constraint_notes": "", "essential_data_missing": false, "population_score": 0.74209026517575327, "traffic_score": 0.75495241271570557, "coverage_distance_score": 0.15020243160611121, "arterial_access_score": 0.5, "transit_access_score": 0.96961538537044434, "intersection_access_score": 0.5, "demand_score": 0.64220086468782744, "coverage_score": 0.37514170212427789, "accessibility_score": 0.6408846156111333, "feasibility_score": 0.38840567162621115, "overall_score": 0.53643593360884434, "static_rank": 114, "non_coverage_score": 0.59020067743703319, "_distance": 1793.0772765196693, "_coverage_score": 0.49890711042649732, "_marginal_population": 17567.0, "_marginal_score": 1.0, "_selection_score": 0.66982711632514091, "selection_round": 15, "selection_score": 0.66982711632514091, "marginal_population": 17567.0, "_selected_distance": 3716.0596747181962 }, "geometry": { "type": "Point", "coordinates": [ -79.374332, 43.703909 ] } },
{ "type": "Feature", "properties": { "id": "283", "address": "100 Cooperage Street", "lat": 43.653572814815632, "lng": -79.357213809192672, "carpark_type": "garage", "carpark_type_str": "Garage", "is_ttc": false, "is_under_construction": false, "capacity": 86, "max_height": null, "bike_racks": "available", "rate_half_hour": 1.5, "monthly_permit_status": "not_available", "candidate_id": "green_p_283", "distance_to_nearest_charger_m": 1260.4670987190736, "capacity_missing": false, "capacity_filled": 86, "existing_chargers_1000m": 0, "existing_chargers_2000m": 5, "baseline_coverage_score": 0.10276458922925033, "baseline_capacity_score": 0.43113093434712796, "baseline_score": 0.23411112727640138, "population_500m": 5814.9281689320396, "households_500m": 3602.0437020187046, "apartment_population_500m": 5386.6279366076733, "median_income_500m": 74230.210071360634, "apartment_share_500m": 0.92634470798578628, "population_1000m": 33026.49788111278, "households_1000m": 18423.227588191268, "apartment_population_1000m": 29709.281606906792, "median_income_1000m": 67938.389145272493, "apartment_share_1000m": 0.89955894548228676, "population_2000m": 106715.07047716323, "households_2000m": 58993.883574803964, "apartment_population_2000m": 90180.472063478039, "median_income_2000m": 69868.657768425357, "apartment_share_2000m": 0.84505845013499237, "distance_to_traffic_count_m": 79.767916716830953, "traffic_volume_weighted_1000m": 7919.1695088731731, "traffic_counters_1000m": 104, "traffic_data_quality": "high", "distance_to_arterial_m": null, "road_length_500m": null, "intersections_500m": null, "distance_to_transit_stop_m": 107.90708801713831, "transit_stop_count_500m": 25, "distance_to_destination_m": 166.70709596684287, "destination_count_1000m": 29, "capacity_log": 4.4659081186545837, "capacity_score": 0.43113093434712796, "facility_type_score": 0.7, "ttc_facility_score": 0.0, "parking_feasibility_score": 0.45523510732563316, "underserved_population_raw": 33026.49788111278, "underserved_population_score": 0.97745271673251399, "apartment_score": 0.90838770112034417, "low_existing_supply_score": 0.75, "equity_score": 0.94982671048764611, "constraint_status": "eligible", "constraint_notes": "", "essential_data_missing": false, "population_score": 0.85395480235420673, "traffic_score": 0.71630343817684927, "coverage_distance_score": 0.10276458922925033, "arterial_access_score": 0.5, "transit_access_score": 0.86349695969872142, "intersection_access_score": 0.5, "demand_score": 0.81666340464535914, "coverage_score": 0.29693521246047522, "accessibility_score": 0.60904908790961643, "feasibility_score": 0.45523510732563316, "overall_score": 0.60431057923825948, "static_rank": 37, "non_coverage_score": 0.70676903483085418, "_distance": 1260.4670987190736, "_coverage_score": 0.35071327167237415, "_marginal_population": 15573.0, "_marginal_score": 1.0, "_selection_score": 0.69106283533352064, "selection_round": 16, "selection_score": 0.69106283533352064, "marginal_population": 15573.0, "_selected_distance": 5759.4085941750636 }, "geometry": { "type": "Point", "coordinates": [ -79.357213809192672, 43.653572814815639 ] } },
{ "type": "Feature", "properties": { "id": "266", "address": "250 Fort York Blvd. ", "lat": 43.637208258929043, "lng": -79.406461027577961, "carpark_type": "surface", "carpark_type_str": "Surface", "is_ttc": false, "is_under_construction": false, "capacity": 49, "max_height": null, "bike_racks": "available", "rate_half_hour": 1.0, "monthly_permit_status": "not_available", "candidate_id": "green_p_266", "distance_to_nearest_charger_m": 1120.801033253872, "capacity_missing": false, "capacity_filled": 49, "existing_chargers_1000m": 0, "existing_chargers_2000m": 8, "baseline_coverage_score": 0.090324990672770847, "baseline_capacity_score": 0.33106793380471322, "baseline_score": 0.18662216792554781, "population_500m": 11111.745003048278, "households_500m": 6797.2467416215495, "apartment_population_500m": 10886.659434152811, "median_income_500m": 77043.870845174984, "apartment_share_500m": 0.97974345444088939, "population_1000m": 41440.523231005172, "households_1000m": 24943.315234845853, "apartment_population_1000m": 39439.517757142967, "median_income_1000m": 77895.817990250143, "apartment_share_1000m": 0.95171379804478229, "population_2000m": 123792.20961335707, "households_2000m": 71225.955846691548, "apartment_population_2000m": 112316.08293211265, "median_income_2000m": 75122.49228995273, "apartment_share_2000m": 0.90729524323793831, "distance_to_traffic_count_m": 95.642933635333279, "traffic_volume_weighted_1000m": 10743.385221802271, "traffic_counters_1000m": 78, "traffic_data_quality": "high", "distance_to_arterial_m": null, "road_length_500m": null, "intersections_500m": null, "distance_to_transit_stop_m": 87.734214740999136, "transit_stop_count_500m": 17, "distance_to_destination_m": 148.60597675374285, "destination_count_1000m": 25, "capacity_log": 3.912023005428146, "capacity_score": 0.33106793380471322, "facility_type_score": 1.0, "ttc_facility_score": 0.0, "parking_feasibility_score": 0.4651941569730636, "underserved_population_raw": 41440.523231005172, "underserved_population_score": 0.99877168688185092, "apartment_score": 0.96741797805582408, "low_existing_supply_score": 0.6, "equity_score": 0.98623020335144007, "constraint_status": "eligible", "constraint_notes": "", "essential_data_missing": false, "population_score": 0.89064395489682768, "traffic_score": 0.79881748510768247, "coverage_distance_score": 0.090324990672770847, "arterial_access_score": 0.5, "transit_access_score": 0.89042488242172424, "intersection_access_score": 0.5, "demand_score": 0.87385949510242611, "coverage_score": 0.24322749347093958, "accessibility_score": 0.61712746472651725, "feasibility_score": 0.4651941569730636, "overall_score": 0.6147923587248697, "static_rank": 34, "non_coverage_score": 0.73864731380951298, "_distance": 1120.801033253872, "_coverage_score": 0.31185248521417414, "_marginal_population": 14481.0, "_marginal_score": 0.96219269102990035, "_selection_score": 0.68783495096577507, "selection_round": 17, "selection_score": 0.68783495096577507, "marginal_population": 14481.0, "_selected_distance": 4368.7866605924655 }, "geometry": { "type": "Point", "coordinates": [ -79.406461027577961, 43.637208258929043 ] } },
{ "type": "Feature", "properties": { "id": "657", "address": "271A Scarlett Road", "lat": 43.67789, "lng": -79.506555, "carpark_type": "surface", "carpark_type_str": "Surface", "is_ttc": false, "is_under_construction": false, "capacity": 11, "max_height": 0.0, "bike_racks": "available", "rate_half_hour": 1.0, "monthly_permit_status": "not_available", "candidate_id": "green_p_657", "distance_to_nearest_charger_m": 2416.3768768714444, "capacity_missing": false, "capacity_filled": 11, "existing_chargers_1000m": 0, "existing_chargers_2000m": 0, "baseline_coverage_score": 0.20571768352478162, "baseline_capacity_score": 0.073249947261122675, "baseline_score": 0.15273058901931805, "population_500m": 2172.3948119406605, "households_500m": 995.19471707511184, "apartment_population_500m": 1365.5146813897625, "median_income_500m": 72100.757217969804, "apartment_share_500m": 0.62857574225649637, "population_1000m": 13236.145157401126, "households_1000m": 5625.5211804180281, "apartment_population_1000m": 8826.4704709476973, "median_income_1000m": 73184.25927381868, "apartment_share_1000m": 0.6668460013081895, "population_2000m": 55426.555707066538, "households_2000m": 22223.316456533859, "apartment_population_2000m": 32668.281752903837, "median_income_2000m": 75877.580036712316, "apartment_share_2000m": 0.58939765129116328, "distance_to_traffic_count_m": 124.06535604846336, "traffic_volume_weighted_1000m": 11674.349957249735, "traffic_counters_1000m": 22, "traffic_data_quality": "high", "distance_to_arterial_m": null, "road_length_500m": null, "intersections_500m": null, "distance_to_transit_stop_m": 113.34390868990562, "transit_stop_count_500m": 4, "distance_to_destination_m": 102.65501521800029, "destination_count_1000m": 13, "capacity_log": 2.4849066497880004, "capacity_score": 0.073249947261122675, "facility_type_score": 1.0, "ttc_facility_score": 0.0, "parking_feasibility_score": 0.29761246571972977, "underserved_population_raw": 13236.145157401126, "underserved_population_score": 0.8915622730460171, "apartment_score": 0.64499687809755668, "low_existing_supply_score": 1.0, "equity_score": 0.79293611506663297, "constraint_status": "eligible", "constraint_notes": "", "essential_data_missing": false, "population_score": 0.70614055202723736, "traffic_score": 0.82130038425059126, "coverage_distance_score": 0.20571768352478162, "arterial_access_score": 0.5, "transit_access_score": 0.85623957573903198, "intersection_access_score": 0.5, "demand_score": 0.73421775851947513, "coverage_score": 0.44400237846734714, "accessibility_score": 0.60687187272170962, "feasibility_score": 0.29761246571972977, "overall_score": 0.57657577808164406, "static_rank": 59, "non_coverage_score": 0.6207669112864096, "_distance": 2416.3768768714444, "_coverage_score": 0.6723344393060865, "_marginal_population": 12175.0, "_marginal_score": 0.80897009966777411, "_selection_score": 0.68070959038667, "selection_round": 18, "selection_score": 0.68070959038667, "marginal_population": 12175.0, "_selected_distance": 2683.208264309585 }, "geometry": { "type": "Point", "coordinates": [ -79.506555, 43.67789 ] } },
{ "type": "Feature", "properties": { "id": "706", "address": "284 Milner Avenue", "lat": 43.789429, "lng": -79.238387, "carpark_type": "surface", "carpark_type_str": "Surface", "is_ttc": false, "is_under_construction": false, "capacity": 103, "max_height": 0.0, "bike_racks": "n/a", "rate_half_hour": 2.0, "monthly_permit_status": "", "candidate_id": "green_p_706", "distance_to_nearest_charger_m": 11295.257185201524, "capacity_missing": false, "capacity_filled": 103, "existing_chargers_1000m": 0, "existing_chargers_2000m": 0, "baseline_coverage_score": 0.9965304432224904, "baseline_capacity_score": 0.46337502636943867, "baseline_score": 0.78326827648126962, "population_500m": 4631.1386130426745, "households_500m": 1597.2433959478144, "apartment_population_500m": 2083.9776868600457, "median_income_500m": 78958.826748368549, "apartment_share_500m": 0.44999250961544096, "population_1000m": 12076.009557882409, "households_1000m": 4004.407739863902, "apartment_population_1000m": 5592.5753658820631, "median_income_1000m": 75298.098567524372, "apartment_share_1000m": 0.46311451966610984, "population_2000m": 41872.16030444709, "households_2000m": 14679.182401010341, "apartment_population_2000m": 23919.981190233277, "median_income_2000m": 73865.757787159193, "apartment_share_2000m": 0.57126217076726327, "distance_to_traffic_count_m": 107.81666104557247, "traffic_volume_weighted_1000m": 17816.284259188677, "traffic_counters_1000m": 30, "traffic_data_quality": "high", "distance_to_arterial_m": null, "road_length_500m": null, "intersections_500m": null, "distance_to_transit_stop_m": 80.582297584946559, "transit_stop_count_500m": 20, "distance_to_destination_m": 585.28230879948012, "destination_count_1000m": 6, "capacity_log": 4.6443908991413725, "capacity_score": 0.46337502636943867, "facility_type_score": 1.0, "ttc_facility_score": 0.0, "parking_feasibility_score": 0.55119376714013513, "underserved_population_raw": 12076.009557882409, "underserved_population_score": 0.88294580406680756, "apartment_score": 0.41440806054895307, "low_existing_supply_score": 1.0, "equity_score": 0.69553070665966577, "constraint_status": "eligible", "constraint_notes": "", "essential_data_missing": false, "population_score": 0.69131193026255922, "traffic_score": 0.93566480916022221, "coverage_distance_score": 0.9965304432224904, "arterial_access_score": 0.5, "transit_access_score": 0.89997167676595358, "intersection_access_score": 0.5, "demand_score": 0.72145466393402002, "coverage_score": 0.9975713102557433, "accessibility_score": 0.61999150302978612, "feasibility_score": 0.55119376714013513, "overall_score": 0.74205966308708593, "static_rank": 4, "non_coverage_score": 0.65688911403086669, "_distance": 1952.2374759134666, "_coverage_score": 0.5431919587229358, "_marginal_population": 12066.0, "_marginal_score": 0.80172757475083056, "_selection_score": 0.66467444038387491, "selection_round": 19, "selection_score": 0.66467444038387491, "marginal_population": 12066.0, "_selected_distance": 1952.2374759134666 }, "geometry": { "type": "Point", "coordinates": [ -79.238387, 43.789429 ] } },
{ "type": "Feature", "properties": { "id": "47", "address": "125 Burnaby Blvd", "lat": 43.704445, "lng": -79.412076, "carpark_type": "surface", "carpark_type_str": "Surface", "is_ttc": false, "is_under_construction": false, "capacity": 154, "max_height": 2.67, "bike_racks": "available", "rate_half_hour": 1.5, "monthly_permit_status": "not_available", "candidate_id": "green_p_47", "distance_to_nearest_charger_m": 1290.1830415883401, "capacity_missing": false, "capacity_filled": 154, "existing_chargers_1000m": 0, "existing_chargers_2000m": 2, "baseline_coverage_score": 0.10541129083704391, "baseline_capacity_score": 0.53546319085784944, "baseline_score": 0.27743205084536615, "population_500m": 5066.0144318229422, "households_500m": 2007.2666671489656, "apartment_population_500m": 2190.2099684143914, "median_income_500m": 120009.01194289708, "apartment_share_500m": 0.43233393783015173, "population_1000m": 20395.104524174625, "households_1000m": 8728.3669482647765, "apartment_population_1000m": 10526.488653773109, "median_income_1000m": 118575.90215726287, "apartment_share_1000m": 0.51612820328015008, "population_2000m": 102397.58038332305, "households_2000m": 49528.973010249392, "apartment_population_2000m": 69898.39549348873, "median_income_2000m": 99759.66165919257, "apartment_share_2000m": 0.68261764811068437, "distance_to_traffic_count_m": 64.775856642114832, "traffic_volume_weighted_1000m": 9817.3575887086135, "traffic_counters_1000m": 81, "traffic_data_quality": "high", "distance_to_arterial_m": null, "road_length_500m": null, "intersections_500m": null, "distance_to_transit_stop_m": 68.985585828688272, "transit_stop_count_500m": 23, "distance_to_destination_m": 396.81745060847408, "destination_count_1000m": 12, "capacity_log": 5.0434251169192468, "capacity_score": 0.53546319085784944, "facility_type_score": 1.0, "ttc_facility_score": 0.0, "parking_feasibility_score": 0.59805107405760216, "underserved_population_raw": 20395.104524174625, "underserved_population_score": 0.9321740519733912, "apartment_score": 0.47441038576609046, "low_existing_supply_score": 0.9, "equity_score": 0.74906858549047095, "constraint_status": "eligible", "constraint_notes": "", "essential_data_missing": false, "population_score": 0.77603190895753305, "traffic_score": 0.77443171270595268, "coverage_distance_score": 0.10541129083704391, "arterial_access_score": 0.5, "transit_access_score": 0.91545164105952925, "intersection_access_score": 0.5, "demand_score": 0.71514753563119138, "coverage_score": 0.34378790358593075, "accessibility_score": 0.62463549231785875, "feasibility_score": 0.59805107405760216, "overall_score": 0.59003285470709932, "static_rank": 46, "non_coverage_score": 0.67211450508082216, "_distance": 1290.1830415883401, "_coverage_score": 0.35898145697852035, "_marginal_population": 9838.0, "_marginal_score": 0.65368770764119599, "_selection_score": 0.58922454369534016, "selection_round": 20, "selection_score": 0.58922454369534016, "marginal_population": 9838.0, "_selected_distance": 2965.4333001623731 }, "geometry": { "type": "Point", "coordinates": [ -79.412076, 43.704445 ] } }
]
}
